NORAD_CAT_ID,OBJECT_NAME,OBJECT_TYPE,EPOCH,MEAN_MOTION,ECCENTRICITY,INCLINATION,RA_OF_ASC_NODE,ARG_OF_PERICENTER,MEAN_ANOMALY,BSTAR,MEAN_MOTION_DOT,MEAN_MOTION_DDOT,TLE_LINE0,TLE_LINE1,TLE_LINE2,SEMIMAJOR_AXIS,PERIOD,APOGEE,PERIGEE,DECAYED
52703.0,STARLINK-4020,PAYLOAD,2023-07-19 02:04:54,15.08835962,0.0001113,53.2171,144.4081,87.2563,272.8556,1.7497e-05,-9e-08,0.0,0 STARLINK-4020,1 52703U 22053AZ  23200.08674703 -.00000009  00000-0  17497-4 0  9993,2 52703  53.2171 144.4081 0001113  87.2563 272.8556 15.08835962 65268,6917.893,95.438,540.528,538.988,0.0
52703.0,STARLINK-4020,PAYLOAD,2023-07-20 05:06:28,15.0884196,0.0001155,53.2167,139.3513,103.4789,256.6332,2.2377e-05,6.8e-07,0.0,0 STARLINK-4020,1 52703U 22053AZ  23201.21282534  .00000068  00000-0  22377-4 0  9993,2 52703  53.2167 139.3513 0001155 103.4789 256.6332 15.08841960 65439,6917.874,95.437,540.538,538.94,0.0
52703.0,STARLINK-4020,PAYLOAD,2023-07-21 01:46:29,15.0883667,0.0001258,53.2164,135.4855,93.9537,266.1599,0.00012052,1.631e-05,0.0,0 STARLINK-4020,1 52703U 22053AZ  23202.07394860  .00001631  00000-0  12052-3 0  9999,2 52703  53.2164 135.4855 0001258  93.9537 266.1599 15.08836670 65567,6917.891,95.438,540.626,538.885,0.0
52703.0,STARLINK-4020,PAYLOAD,2023-07-24 04:29:37,15.08833645,0.0001189,53.218,121.5068,109.6118,250.5003,-4.3986e-05,-9.88e-06,0.0,0 STARLINK-4020,1 52703U 22053AZ  23205.18723510 -.00000988  00000-0 -43986-4 0  9999,2 52703  53.2180 121.5068 0001189 109.6118 250.5003 15.08833645 65184,6917.9,95.438,540.587,538.942,0.0
52703.0,STARLINK-4020,PAYLOAD,2023-07-25 02:45:00,15.08852006,0.0001356,53.2185,117.3467,118.3898,241.7231,-6.8239e-05,-1.374e-05,0.0,0 STARLINK-4020,1 52703U 22053AZ  23206.11458553 -.00001374  00000-0 -68239-4 0  9993,2 52703  53.2185 117.3467 0001356 118.3898 241.7231 15.08852006 65326,6917.844,95.437,540.647,538.771,0.0
52703.0,STARLINK-4020,PAYLOAD,2023-07-26 04:11:10,15.08841207,9.49e-05,53.2187,112.5882,105.8959,254.2138,0.00014205,1.974e-05,0.0,0 STARLINK-4020,1 52703U 22053AZ  23207.17443106  .00001974  00000-0  14205-3 0  9995,2 52703  53.2187 112.5882 0000949 105.8959 254.2138 15.08841207 65485,6917.877,95.437,540.398,539.085,0.0
52703.0,STARLINK-4020,PAYLOAD,2023-07-26 23:15:49,15.08806705,0.0001454,53.2186,109.0192,105.031,255.0843,0.00062999,9.743e-05,0.0,0 STARLINK-4020,1 52703U 22053AZ  23207.96932114  .00009743  00000-0  62999-3 0  9999,2 52703  53.2186 109.0192 0001454 105.0310 255.0843 15.08806705 66458,6917.982,95.44,540.853,538.841,0.0
52703.0,STARLINK-4020,PAYLOAD,2023-07-27 04:01:57,15.08851322,8.74e-05,53.2177,108.1248,173.4391,186.6613,6.6152e-05,7.66e-06,0.0,0 STARLINK-4020,1 52703U 22053AZ  23208.16802171  .00000766  00000-0  66152-4 0  9993,2 52703  53.2177 108.1248 0000874 173.4391 186.6613 15.08851322 66485,6917.846,95.437,540.315,539.106,0.0
52703.0,STARLINK-4020,PAYLOAD,2023-07-27 11:58:53,15.08841501,0.0001868,53.2184,106.6401,139.4873,220.6258,0.00012801,1.75e-05,0.0,0 STARLINK-4020,1 52703U 22053AZ  23208.49922945  .00001750  00000-0  12801-3 0  9996,2 52703  53.2184 106.6401 0001868 139.4873 220.6258 15.08841501 65681,6917.876,95.437,541.033,538.449,0.0
52703.0,STARLINK-4020,PAYLOAD,2023-07-27 21:31:14,15.08826439,9.08e-05,53.2179,104.8624,58.4169,301.6912,-5.5816e-05,-1.176e-05,0.0,0 STARLINK-4020,1 52703U 22053AZ  23208.89669077 -.00001176  00000-0 -55816-4 0  9992,2 52703  53.2179 104.8624 0000908  58.4169 301.6912 15.08826439 65741,6917.922,95.438,540.415,539.159,0.0
52703.0,STARLINK-4020,PAYLOAD,2023-07-28 02:17:22,15.08834291,7.87e-05,53.2172,103.9657,95.7913,264.3169,-1.1836e-05,-4.76e-06,0.0,0 STARLINK-4020,1 52703U 22053AZ  23209.09540252 -.00000476  00000-0 -11836-4 0  9994,2 52703  53.2172 103.9657 0000787  95.7913 264.3169 15.08834291 66628,6917.898,95.438,540.307,539.218,0.0
52703.0,STARLINK-4020,PAYLOAD,2023-07-28 11:49:41,15.08836439,8.11e-05,53.2172,102.1823,92.4732,267.6353,4.1381e-05,3.71e-06,0.0,0 STARLINK-4020,1 52703U 22053AZ  23209.49284144  .00000371  00000-0  41381-4 0  9993,2 52703  53.2172 102.1823 0000811  92.4732 267.6353 15.08836439 65834,6917.891,95.438,540.317,539.195,0.0
52703.0,STARLINK-4020,PAYLOAD,2023-07-28 16:35:50,15.08838359,7.23e-05,53.2164,101.2897,104.3937,255.7135,8.5275e-05,1.07e-05,0.0,0 STARLINK-4020,1 52703U 22053AZ  23209.69155772  .00001070  00000-0  85275-4 0  9996,2 52703  53.2164 101.2897 0000723 104.3937 255.7135 15.08838359 66715,6917.885,95.438,540.251,539.25,0.0
52703.0,STARLINK-4020,PAYLOAD,2023-07-29 00:32:45,15.08852235,9.73e-05,53.2165,99.8039,78.2534,281.8567,0.00020716,3.012e-05,0.0,0 STARLINK-4020,1 52703U 22053AZ  23210.02275299  .00003012  00000-0  20716-3 0  9998,2 52703  53.2165  99.8039 0000973  78.2534 281.8567 15.08852235 66768,6917.843,95.437,540.381,539.035,0.0
52703.0,STARLINK-4020,PAYLOAD,2023-07-29 18:02:00,15.08841649,9.53e-05,53.2165,96.5331,82.594,277.5161,0.00026683,3.962e-05,0.0,0 STARLINK-4020,1 52703U 22053AZ  23210.75139926  .00003962  00000-0  26683-3 0  9997,2 52703  53.2165  96.5331 0000953  82.5940 277.5161 15.08841649 66875,6917.875,95.437,540.4,539.081,0.0
52703.0,STARLINK-4020,PAYLOAD,2023-07-31 01:49:42,15.08851115,0.0001067,53.2166,90.585,88.0857,272.0258,0.00010504,1.385e-05,0.0,0 STARLINK-4020,1 52703U 22053AZ  23212.07619136  .00001385  00000-0  10504-3 0  9992,2 52703  53.2166  90.5850 0001067  88.0857 272.0258 15.08851115 67070,6917.846,95.437,540.45,538.973,0.0
52703.0,STARLINK-4020,PAYLOAD,2023-08-01 01:40:30,15.08847585,0.000109,53.2167,86.1245,87.6362,272.4755,0.00011573,1.555e-05,0.0,0 STARLINK-4020,1 52703U 22053AZ  23213.06979213  .00001555  00000-0  11573-3 0  9993,2 52703  53.2167  86.1245 0001090  87.6362 272.4755 15.08847585 67221,6917.857,95.437,540.476,538.968,0.0
52703.0,STARLINK-4020,PAYLOAD,2023-08-01 15:58:59,15.08831587,0.000111,53.2166,83.4486,84.7069,275.405,-9.3905e-05,-1.782e-05,0.0,0 STARLINK-4020,1 52703U 22053AZ  23213.66596215 -.00001782  00000-0 -93905-4 0  9990,2 52703  53.2166  83.4486 0001110  84.7069 275.4050 15.08831587 67318,6917.906,95.438,540.539,539.003,0.0
52703.0,STARLINK-4020,PAYLOAD,2023-08-02 07:52:50,15.08841385,0.0001108,53.2175,80.4741,85.1766,274.9353,3.4328e-05,2.59e-06,0.0,0 STARLINK-4020,1 52703U 22053AZ  23214.32835908  .00000259  00000-0  34328-4 0  9999,2 52703  53.2175  80.4741 0001108  85.1766 274.9353 15.08841385 67413,6917.876,95.437,540.508,538.975,0.0
52703.0,STARLINK-4020,PAYLOAD,2023-08-03 18:51:19,15.08835979,0.0001041,53.2175,73.9322,90.6991,269.4121,8.6592e-05,1.09e-05,0.0,0 STARLINK-4020,1 52703U 22053AZ  23215.78564491  .00001090  00000-0  86592-4 0  9990,2 52703  53.2175  73.9322 0001041  90.6991 269.4121 15.08835979 67630,6917.893,95.438,540.478,539.038,0.0
52703.0,STARLINK-4020,PAYLOAD,2023-08-03 23:37:28,15.0884351,0.0001124,53.2166,73.0386,107.5043,252.6072,0.00017358,2.476e-05,0.0,0 STARLINK-4020,1 52703U 22053AZ  23215.98436068  .00002476  00000-0  17358-3 0  9992,2 52703  53.2166  73.0386 0001124 107.5043 252.6072 15.08843510 67661,6917.87,95.437,540.512,538.957,0.0
52703.0,STARLINK-4020,PAYLOAD,2023-08-04 21:52:52,15.08843903,0.0001144,53.2174,68.8733,92.1946,267.9177,0.00015984,2.257e-05,0.0,0 STARLINK-4020,1 52703U 22053AZ  23216.91172326  .00002257  00000-0  15984-3 0  9990,2 52703  53.2174  68.8733 0001144  92.1946 267.9177 15.08843903 67808,6917.868,95.437,540.525,538.942,0.0
52703.0,STARLINK-4020,PAYLOAD,2023-08-06 07:15:58,15.08837743,0.0001227,53.218,62.6271,127.3757,232.7347,5.2909e-05,5.54e-06,0.0,0 STARLINK-4020,1 52703U 22053AZ  23218.30276358  .00000554  00000-0  52909-4 0  9992,2 52703  53.2180  62.6271 0001227 127.3757 232.7347 15.08837743 68015,6917.887,95.438,540.601,538.903,0.0
52703.0,STARLINK-4020,PAYLOAD,2023-08-06 21:34:28,15.08824443,0.0001304,53.2189,59.952,112.7036,247.4094,-0.00016985,-2.989e-05,0.0,0 STARLINK-4020,1 52703U 22053AZ  23218.89893651 -.00002989  00000-0 -16985-3 0  9996,2 52703  53.2189  59.9520 0001304 112.7036 247.4094 15.08824443 68109,6917.928,95.439,540.695,538.891,0.0
52703.0,STARLINK-4020,PAYLOAD,2023-08-07 19:49:51,15.0885073,9.84e-05,53.2176,55.7936,102.1751,257.9351,0.00018303,2.627e-05,0.0,0 STARLINK-4020,1 52703U 22053AZ  23219.82628880  .00002627  00000-0  18303-3 0  9993,2 52703  53.2176  55.7936 0000984 102.1751 257.9351 15.08850730 68245,6917.848,95.437,540.393,539.032,0.0
52703.0,STARLINK-4020,PAYLOAD,2023-08-08 13:19:06,15.0884825,0.0001027,53.2178,52.5223,99.6911,260.4197,0.00044969,6.878e-05,0.0,0 STARLINK-4020,1 52703U 22053AZ  23220.55493438  .00006878  00000-0  44969-3 0  9993,2 52703  53.2178  52.5223 0001027  99.6911 260.4197 15.08848250 68351,6917.855,95.437,540.431,539.01,0.0
52703.0,STARLINK-4020,PAYLOAD,2023-08-09 05:12:57,15.08845888,9.51e-05,53.2177,49.549,85.4436,274.6665,0.00017997,2.578e-05,0.0,0 STARLINK-4020,1 52703U 22053AZ  23221.21733198  .00002578  00000-0  17997-3 0  9991,2 52703  53.2177  49.5490 0000951  85.4436 274.6665 15.08845888 68454,6917.862,95.437,540.385,539.07,0.0
52703.0,STARLINK-4020,PAYLOAD,2023-08-10 11:25:16,15.08841669,0.0001152,53.2158,43.9001,93.2921,266.8203,-1.8237e-05,-5.78e-06,0.0,0 STARLINK-4020,1 52703U 22053AZ  23222.47589028 -.00000578  00000-0 -18237-4 0  9990,2 52703  53.2158  43.9001 0001152  93.2921 266.8203 15.08841669 68644,6917.875,95.437,540.537,538.943,0.0
52703.0,STARLINK-4020,PAYLOAD,2023-08-11 17:37:36,15.08829918,0.0001502,53.2191,38.2521,88.8138,271.3026,-0.00024168,-4.131e-05,0.0,0 STARLINK-4020,1 52703U 22053AZ  23223.73444491 -.00004131  00000-0 -24168-3 0  9992,2 52703  53.2191  38.2521 0001502  88.8138 271.3026 15.08829918 68832,6917.911,95.438,540.815,538.737,0.0
52703.0,STARLINK-4020,PAYLOAD,2023-08-12 11:06:51,15.08824796,0.0001409,53.2178,34.9785,96.3606,263.7547,-2.1507e-05,-6.3e-06,0.0,0 STARLINK-4020,1 52703U 22053AZ  23224.46309922 -.00000630  00000-0 -21507-4 0  9997,2 52703  53.2178  34.9785 0001409  96.3606 263.7547 15.08824796 68946,6917.927,95.439,540.767,538.817,0.0
